[
    {
        "Altitude(m)": 707300.1424755984,
        "Argument of Periapsis(deg)": 0.010251109067964361,
        "Eccentricity": 0.0,
        "Inclination(deg)": 45.0,
        "Latitude(deg)": 45.11179530865541,
        "Longitude(deg)": 82.43154912695631,
        "Mean Anomaly(deg)": 92.19809498273275,
        "RAAN(deg)": 89.99032325268762,
        "Satellite Name": "Constellation 1 401",
        "Satellite Number": 401,
        "Semi-Major Axis(m)": 7083131.272910544,
        "Time(s)": 171
    },
    {
        "Altitude(m)": 707299.6112945528,
        "Argument of Periapsis(deg)": 0.010311057074209765,
        "Eccentricity": 0.0,
        "Inclination(deg)": 45.0,
        "Latitude(deg)": 45.109418533783895,
        "Longitude(deg)": 82.51320309439113,
        "Mean Anomaly(deg)": 92.25879612298262,
        "RAAN(deg)": 89.99026666352205,
        "Satellite Name": "Constellation 1 401",
        "Satellite Number": 401,
        "Semi-Major Axis(m)": 7083131.272910544,
        "Time(s)": 172
    },
    {
        "Altitude(m)": 707299.0655335874,
        "Argument of Periapsis(deg)": 0.010371005080455171,
        "Eccentricity": 0.0,
        "Inclination(deg)": 45.0,
        "Latitude(deg)": 45.10697738877285,
        "Longitude(deg)": 82.5948498518894,
        "Mean Anomaly(deg)": 92.31949726323253,
        "RAAN(deg)": 89.99021007435647,
        "Satellite Name": "Constellation 1 401",
        "Satellite Number": 401,
        "Semi-Major Axis(m)": 7083131.272910544,
        "Time(s)": 173
    },
    {
        "Altitude(m)": 707298.5051959227,
        "Argument of Periapsis(deg)": 0.010430953086700577,
        "Eccentricity": 0.0,
        "Inclination(deg)": 45.0,
        "Latitude(deg)": 45.104471884491524,
        "Longitude(deg)": 82.67648920807815,
        "Mean Anomaly(deg)": 92.38019840348245,
        "RAAN(deg)": 89.9901534851909,
        "Satellite Name": "Constellation 1 401",
        "Satellite Number": 401,
        "Semi-Major Axis(m)": 7083131.272910544,
        "Time(s)": 174
    },
    {
        "Altitude(m)": 707297.9302848792,
        "Argument of Periapsis(deg)": 0.010490901092945983,
        "Eccentricity": 0.0,
        "Inclination(deg)": 45.0,
        "Latitude(deg)": 45.10190203209327,
        "Longitude(deg)": 82.75812097171705,
        "Mean Anomaly(deg)": 92.44089954373234,
        "RAAN(deg)": 89.99009689602534,
        "Satellite Name": "Constellation 1 401",
        "Satellite Number": 401,
        "Semi-Major Axis(m)": 7083131.272910544,
        "Time(s)": 175
    },
    {
        "Altitude(m)": 707297.3408038403,
        "Argument of Periapsis(deg)": 0.010550849099191389,
        "Eccentricity": 0.0,
        "Inclination(deg)": 45.0,
        "Latitude(deg)": 45.099267843015426,
        "Longitude(deg)": 82.83974495170173,
        "Mean Anomaly(deg)": 92.50160068398228,
        "RAAN(deg)": 89.99004030685977,
        "Satellite Name": "Constellation 1 401",
        "Satellite Number": 401,
        "Semi-Major Axis(m)": 7083131.272910544,
        "Time(s)": 176
    },
    {
        "Altitude(m)": 707296.7367562983,
        "Argument of Periapsis(deg)": 0.010610797105436795,
        "Eccentricity": 0.0,
        "Inclination(deg)": 45.0,
        "Latitude(deg)": 45.09656932897887,
        "Longitude(deg)": 82.92136095706721,
        "Mean Anomaly(deg)": 92.56230182423215,
        "RAAN(deg)": 89.9899837176942,
        "Satellite Name": "Constellation 1 401",
        "Satellite Number": 401,
        "Semi-Major Axis(m)": 7083131.272910544,
        "Time(s)": 177
    },
    {
        "Altitude(m)": 707296.1181458142,
        "Argument of Periapsis(deg)": 0.0106707451116822,
        "Eccentricity": 0.0,
        "Inclination(deg)": 45.0,
        "Latitude(deg)": 45.09380650198794,
        "Longitude(deg)": 83.00296862889391,
        "Mean Anomaly(deg)": 92.62300296448204,
        "RAAN(deg)": 89.98992712852862,
        "Satellite Name": "Constellation 1 401",
        "Satellite Number": 401,
        "Semi-Major Axis(m)": 7083131.272910544,
        "Time(s)": 178
    },
    {
        "Altitude(m)": 707295.4849760454,
        "Argument of Periapsis(deg)": 0.010730693117927606,
        "Eccentricity": 0.0,
        "Inclination(deg)": 45.0,
        "Latitude(deg)": 45.09097937433025,
        "Longitude(deg)": 83.0845681127004,
        "Mean Anomaly(deg)": 92.68370410473193,
        "RAAN(deg)": 89.98987053936307,
        "Satellite Name": "Constellation 1 401",
        "Satellite Number": 401,
        "Semi-Major Axis(m)": 7083131.272910544,
        "Time(s)": 179
    },
    {
        "Altitude(m)": 707294.8372507192,
        "Argument of Periapsis(deg)": 0.01079064112417301,
        "Eccentricity": 0.0,
        "Inclination(deg)": 45.0,
        "Latitude(deg)": 45.0880879585762,
        "Longitude(deg)": 83.16615904986261,
        "Mean Anomaly(deg)": 92.74440524498185,
        "RAAN(deg)": 89.98981395019749,
        "Satellite Name": "Constellation 1 401",
        "Satellite Number": 401,
        "Semi-Major Axis(m)": 7083131.272910544,
        "Time(s)": 180
    },
    {
        "Altitude(m)": 707294.1749736649,
        "Argument of Periapsis(deg)": 0.010850589130418416,
        "Eccentricity": 0.0,
        "Inclination(deg)": 45.0,
        "Latitude(deg)": 45.085132267578814,
        "Longitude(deg)": 83.24774125000651,
        "Mean Anomaly(deg)": 92.80510638523171,
        "RAAN(deg)": 89.98975736103192,
        "Satellite Name": "Constellation 1 401",
        "Satellite Number": 401,
        "Semi-Major Axis(m)": 7083131.272910544,
        "Time(s)": 181
    },
    {
        "Altitude(m)": 707293.4981487895,
        "Argument of Periapsis(deg)": 0.01091053713666382,
        "Eccentricity": 0.0,
        "Inclination(deg)": 45.0,
        "Latitude(deg)": 45.08211231447351,
        "Longitude(deg)": 83.32931452291461,
        "Mean Anomaly(deg)": 92.86580752548163,
        "RAAN(deg)": 89.98970077186634,
        "Satellite Name": "Constellation 1 401",
        "Satellite Number": 401,
        "Semi-Major Axis(m)": 7083131.272910544,
        "Time(s)": 182
    },
    {
        "Altitude(m)": 707292.8067800818,
        "Argument of Periapsis(deg)": 0.010970485142909228,
        "Eccentricity": 0.0,
        "Inclination(deg)": 45.0,
        "Latitude(deg)": 45.07902811267778,
        "Longitude(deg)": 83.41087867852853,
        "Mean Anomaly(deg)": 92.92650866573155,
        "RAAN(deg)": 89.98964418270079,
        "Satellite Name": "Constellation 1 401",
        "Satellite Number": 401,
        "Semi-Major Axis(m)": 7083131.272910544,
        "Time(s)": 183
    },
    {
        "Altitude(m)": 707292.1008716235,
        "Argument of Periapsis(deg)": 0.011030433149154634,
        "Eccentricity": 0.0,
        "Inclination(deg)": 45.0,
        "Latitude(deg)": 45.0758796758909,
        "Longitude(deg)": 83.49243352695278,
        "Mean Anomaly(deg)": 92.98720980598144,
        "RAAN(deg)": 89.98958759353522,
        "Satellite Name": "Constellation 1 401",
        "Satellite Number": 401,
        "Semi-Major Axis(m)": 7083131.272910544,
        "Time(s)": 184
    },
    {
        "Altitude(m)": 707291.3804275697,
        "Argument of Periapsis(deg)": 0.01109038115540004,
        "Eccentricity": 0.0,
        "Inclination(deg)": 45.0,
        "Latitude(deg)": 45.07266701809362,
        "Longitude(deg)": 83.57397871036079,
        "Mean Anomaly(deg)": 93.04791094623137,
        "RAAN(deg)": 89.98953100436964,
        "Satellite Name": "Constellation 1 401",
        "Satellite Number": 401,
        "Semi-Major Axis(m)": 7083131.272910544,
        "Time(s)": 185
    },
    {
        "Altitude(m)": 707290.6454521768,
        "Argument of Periapsis(deg)": 0.011150329161645444,
        "Eccentricity": 0.0,
        "Inclination(deg)": 45.0,
        "Latitude(deg)": 45.069390153548035,
        "Longitude(deg)": 83.65551437538736,
        "Mean Anomaly(deg)": 93.10861208648123,
        "RAAN(deg)": 89.98947441520407,
        "Satellite Name": "Constellation 1 401",
        "Satellite Number": 401,
        "Semi-Major Axis(m)": 7083131.272910544,
        "Time(s)": 186
    },
    {
        "Altitude(m)": 707289.8959497708,
        "Argument of Periapsis(deg)": 0.01121027716789085,
        "Eccentricity": 0.0,
        "Inclination(deg)": 45.0,
        "Latitude(deg)": 45.06604909679709,
        "Longitude(deg)": 83.73704016454808,
        "Mean Anomaly(deg)": 93.16931322673113,
        "RAAN(deg)": 89.9894178260385,
        "Satellite Name": "Constellation 1 401",
        "Satellite Number": 401,
        "Semi-Major Axis(m)": 7083131.272910544,
        "Time(s)": 187
    },
    {
        "Altitude(m)": 707289.1319247725,
        "Argument of Periapsis(deg)": 0.011270225174136258,
        "Eccentricity": 0.0,
        "Inclination(deg)": 45.0,
        "Latitude(deg)": 45.062643862664224,
        "Longitude(deg)": 83.81855588863206,
        "Mean Anomaly(deg)": 93.23001436698102,
        "RAAN(deg)": 89.98936123687294,
        "Satellite Name": "Constellation 1 401",
        "Satellite Number": 401,
        "Semi-Major Axis(m)": 7083131.272910544,
        "Time(s)": 188
    },
    {
        "Altitude(m)": 707288.353381683,
        "Argument of Periapsis(deg)": 0.011330173180381662,
        "Eccentricity": 0.0,
        "Inclination(deg)": 45.0,
        "Latitude(deg)": 45.059174466253275,
        "Longitude(deg)": 83.90006135860753,
        "Mean Anomaly(deg)": 93.29071550723093,
        "RAAN(deg)": 89.98930464770736,
        "Satellite Name": "Constellation 1 401",
        "Satellite Number": 401,
        "Semi-Major Axis(m)": 7083131.272910544,
        "Time(s)": 189
    }
]